[
    {
        "Altitude(m)": 702743.0776108536,
        "Argument of Periapsis(deg)": 0.011390121186627068,
        "Eccentricity": 0.0,
        "Inclination(deg)": 45.0,
        "Latitude(deg)": 8.123237808836977,
        "Longitude(deg)": -132.61205814058908,
        "Mean Anomaly(deg)": 11.533216647480824,
        "RAAN(deg)": 319.98924805854176,
        "Satellite Name": "Constellation 1 1408",
        "Satellite Number": 1408,
        "Semi-Major Axis(m)": 7083131.272910544,
        "Time(s)": 190
    },
    {
        "Altitude(m)": 702741.3866321679,
        "Argument of Periapsis(deg)": 0.011450069192872472,
        "Eccentricity": 0.0,
        "Inclination(deg)": 45.0,
        "Latitude(deg)": 8.166015566050701,
        "Longitude(deg)": -132.57242667697986,
        "Mean Anomaly(deg)": 11.59391778773071,
        "RAAN(deg)": 319.98919146937624,
        "Satellite Name": "Constellation 1 1408",
        "Satellite Number": 1408,
        "Semi-Major Axis(m)": 7083131.272910544,
        "Time(s)": 191
    },
    {
        "Altitude(m)": 702739.715853572,
        "Argument of Periapsis(deg)": 0.01151001719911788,
        "Eccentricity": 0.0,
        "Inclination(deg)": 45.0,
        "Latitude(deg)": 8.208788554773559,
        "Longitude(deg)": -132.53278586027238,
        "Mean Anomaly(deg)": 11.654618927980597,
        "RAAN(deg)": 319.98913488021066,
        "Satellite Name": "Constellation 1 1408",
        "Satellite Number": 1408,
        "Semi-Major Axis(m)": 7083131.272910544,
        "Time(s)": 192
    },
    {
        "Altitude(m)": 702738.0652640006,
        "Argument of Periapsis(deg)": 0.011569965205363285,
        "Eccentricity": 0.0,
        "Inclination(deg)": 45.0,
        "Latitude(deg)": 8.251556748347367,
        "Longitude(deg)": -132.49313580828326,
        "Mean Anomaly(deg)": 11.715320068230533,
        "RAAN(deg)": 319.9890782910451,
        "Satellite Name": "Constellation 1 1408",
        "Satellite Number": 1408,
        "Semi-Major Axis(m)": 7083131.272910544,
        "Time(s)": 193
    },
    {
        "Altitude(m)": 702736.434852306,
        "Argument of Periapsis(deg)": 0.01162991321160869,
        "Eccentricity": 0.0,
        "Inclination(deg)": 45.0,
        "Latitude(deg)": 8.294320120095154,
        "Longitude(deg)": -132.45347613451798,
        "Mean Anomaly(deg)": 11.77602120848042,
        "RAAN(deg)": 319.98902170187955,
        "Satellite Name": "Constellation 1 1408",
        "Satellite Number": 1408,
        "Semi-Major Axis(m)": 7083131.272910544,
        "Time(s)": 194
    },
    {
        "Altitude(m)": 702734.8246072481,
        "Argument of Periapsis(deg)": 0.011689861217854095,
        "Eccentricity": 0.0,
        "Inclination(deg)": 45.0,
        "Latitude(deg)": 8.337078643322494,
        "Longitude(deg)": -132.41380695675335,
        "Mean Anomaly(deg)": 11.836722348730305,
        "RAAN(deg)": 319.9889651127139,
        "Satellite Name": "Constellation 1 1408",
        "Satellite Number": 1408,
        "Semi-Major Axis(m)": 7083131.272910544,
        "Time(s)": 195
    },
    {
        "Altitude(m)": 702733.2345175085,
        "Argument of Periapsis(deg)": 0.0117498092240995,
        "Eccentricity": 0.0,
        "Inclination(deg)": 45.0,
        "Latitude(deg)": 8.379832291316442,
        "Longitude(deg)": -132.3741282246484,
        "Mean Anomaly(deg)": 11.897423488980193,
        "RAAN(deg)": 319.9889085235484,
        "Satellite Name": "Constellation 1 1408",
        "Satellite Number": 1408,
        "Semi-Major Axis(m)": 7083131.272910544,
        "Time(s)": 196
    },
    {
        "Altitude(m)": 702731.6645716703,
        "Argument of Periapsis(deg)": 0.011809757230344905,
        "Eccentricity": 0.0,
        "Inclination(deg)": 45.0,
        "Latitude(deg)": 8.422581037345696,
        "Longitude(deg)": -132.3344398878425,
        "Mean Anomaly(deg)": 11.95812462923013,
        "RAAN(deg)": 319.9888519343828,
        "Satellite Name": "Constellation 1 1408",
        "Satellite Number": 1408,
        "Semi-Major Axis(m)": 7083131.272910544,
        "Time(s)": 197
    },
    {
        "Altitude(m)": 702730.1147582412,
        "Argument of Periapsis(deg)": 0.011869705236590313,
        "Eccentricity": 0.0,
        "Inclination(deg)": 45.0,
        "Latitude(deg)": 8.46532485466048,
        "Longitude(deg)": -132.29474189595425,
        "Mean Anomaly(deg)": 12.018825769480017,
        "RAAN(deg)": 319.9887953452172,
        "Satellite Name": "Constellation 1 1408",
        "Satellite Number": 1408,
        "Semi-Major Axis(m)": 7083131.272910544,
        "Time(s)": 198
    },
    {
        "Altitude(m)": 702728.585065635,
        "Argument of Periapsis(deg)": 0.011929653242835719,
        "Eccentricity": 0.0,
        "Inclination(deg)": 45.0,
        "Latitude(deg)": 8.508063716492488,
        "Longitude(deg)": -132.25503419858217,
        "Mean Anomaly(deg)": 12.079526909729903,
        "RAAN(deg)": 319.9887387560517,
        "Satellite Name": "Constellation 1 1408",
        "Satellite Number": 1408,
        "Semi-Major Axis(m)": 7083131.272910544,
        "Time(s)": 199
    }
]